ONEWEB-0283             
1 49001U 21060AL  25265.80402868  .00000097  00000+0  22001-3 0  9992
2 49001  87.8966 282.0696 0001651  92.2038 267.9282 13.16596371204431
ONEWEB-0284             
1 49002U 21060AM  25265.79770889  .00000069  00000+0  14780-3 0  9996
2 49002  87.8980 282.0530 0002046  99.6708 260.4654 13.16595319204419
ONEWEB-0285             
1 49075U 21075A   25265.62033550  .00000324  00000+0  86443-3 0  9990
2 49075  87.8919  43.8146 0001671  99.2857 260.8461 13.12443112200113
ONEWEB-0286             
1 49076U 21075B   25265.67845068  .00000416  00000+0  11204-2 0  9995
2 49076  87.8924  43.8382 0001815  93.1319 267.0017 13.12442924199470
ONEWEB-0287             
1 49077U 21075C   25265.79540259 -.00000046  00000+0 -15140-3 0  9998
2 49077  87.9066  59.0446 0001979  89.7209 270.4150 13.17648018198415
ONEWEB-0288             
1 49078U 21075D   25265.88296313 -.00000318  00000+0 -91965-3 0  9999
2 49078  87.8921  43.7572 0001813 100.5839 259.5494 13.12442647200129
ONEWEB-0289             
1 49079U 21075E   25265.83407258 -.00000041  00000+0 -13835-3 0  9990
2 49079  87.9051  59.0611 0001781 108.0696 252.0629 13.17649014198998
ONEWEB-0290             
1 49080U 21075F   25265.88314864  .00000008  00000+0 -13032-4 0  9999
2 49080  87.9064  59.0066 0001565 115.8523 244.2770 13.17647547198419
